{"type": "FeatureCollection", "features": [ {"type": "Feature", "properties": {"norad_id": 66911, "name": "1998-067XX", "group": "stations", "lat": -11.204349885519653, "lon": 121.25054710414064, "alt_km": 413.4749972258842, "timestamp": "2025-12-15T04:01:19.203925+00:00", "meta": {"OBJECT_NAME": "1998-067XX", "OBJECT_ID": "1998-067XX", "EPOCH": "2025-12-14T03:21:47.573280", "MEAN_MOTION": 15.52259497, "ECCENTRICITY": 0.0004664, "INCLINATION": 51.6298, "RA_OF_ASC_NODE": 135.3916, "ARG_OF_PERICENTER": 217.9466, "MEAN_ANOMALY": 142.1196, "EPHEMERIS_TYPE": 0, "CLASSIFICATION_TYPE": "U", "NORAD_CAT_ID": 66911, "ELEMENT_SET_NO": 999, "REV_AT_EPOCH": 182, "BSTAR": 0.0012814197, "MEAN_MOTION_DOT": 0.00079628, "MEAN_MOTION_DDOT": 0}, "tle": {"line1": "1 66911U 98067XX  25348.14013395  .00079628  00000+0  12814-2 0  9990", "line2": "2 66911  51.6298 135.3916 0004664 217.9466 142.1196 15.52259497  1823"}}, "geometry": {"type": "Point", "coordinates": [121.25054710414064, -11.204349885519653]}}, {"type": "Feature", "properties": {"norad_id": 66912, "name": "1998-067XY", "group": "stations", "lat": -33.101560948523726, "lon": 99.24288769758684, "alt_km": 415.93425557357386, "timestamp": "2025-12-15T04:01:19.203944+00:00", "meta": {"OBJECT_NAME": "1998-067XY", "OBJECT_ID": "1998-067XY", "EPOCH": "2025-12-14T03:28:32.818656", "MEAN_MOTION": 15.51307028, "ECCENTRICITY": 0.00043936, "INCLINATION": 51.6302, "RA_OF_ASC_NODE": 135.4229, "ARG_OF_PERICENTER": 231.726, "MEAN_ANOMALY": 128.3335, "EPHEMERIS_TYPE": 0, "CLASSIFICATION_TYPE": "U", "NORAD_CAT_ID": 66912, "ELEMENT_SET_NO": 999, "REV_AT_EPOCH": 182, "BSTAR": 0.00091761575, "MEAN_MOTION_DOT": 0.00054792, "MEAN_MOTION_DDOT": 0}, "tle": {"line1": "1 66912U 98067XY  25348.14482429  .00054792  00000+0  91762-3 0  9994", "line2": "2 66912  51.6302 135.4229 0004393 231.7260 128.3335 15.51307028  1827"}}, "geometry": {"type": "Point", "coordinates": [99.24288769758684, -33.101560948523726]}}]}